NORAD_CAT_ID,OBJECT_NAME,OBJECT_TYPE,EPOCH,MEAN_MOTION,ECCENTRICITY,INCLINATION,RA_OF_ASC_NODE,ARG_OF_PERICENTER,MEAN_ANOMALY,BSTAR,MEAN_MOTION_DOT,MEAN_MOTION_DDOT,TLE_LINE0,TLE_LINE1,TLE_LINE2,SEMIMAJOR_AXIS,PERIOD,APOGEE,PERIGEE,DECAYED
52458.0,STARLINK-3898,PAYLOAD,2022-12-11 09:13:45,15.08837253,0.0002951,53.2172,345.6803,25.3027,334.8109,0.00019864,2.874e-05,0.0,0 STARLINK-3898,1 52458U 22049H   22345.38455297  .00002874  00000-0  19864-3 0  9992,2 52458  53.2172 345.6803 0002951  25.3027 334.8109 15.08837253 33322,6917.889,95.438,541.795,537.712,0.0
52458.0,STARLINK-3898,PAYLOAD,2022-12-12 09:04:32,15.08842702,0.0002827,53.2179,341.2188,32.3091,327.8074,0.0001289,1.764e-05,0.0,0 STARLINK-3898,1 52458U 22049H   22346.37815400  .00001764  00000-0  12890-3 0  9997,2 52458  53.2179 341.2188 0002827  32.3091 327.8074 15.08842702 33630,6917.871999999999,95.437,541.693,537.781,0.0
52458.0,STARLINK-3898,PAYLOAD,2022-12-13 08:55:19,15.08844231,0.0002888,53.2192,336.7593,20.0137,340.0968,3.2769000000000004e-05,2.33e-06,0.0,0 STARLINK-3898,1 52458U 22049H   22347.37175414  .00000233  00000-0  32769-4 0  9990,2 52458  53.2192 336.7593 0002888  20.0137 340.0968 15.08844231 33623,6917.8669999999975,95.437,541.73,537.735,0.0
52458.0,STARLINK-3898,PAYLOAD,2022-12-13 16:52:15,15.08842616,0.0002913,53.2186,335.2718,28.9698,331.1455,6.998800000000001e-05,8.26e-06,0.0,0 STARLINK-3898,1 52458U 22049H   22347.70295546  .00000826  00000-0  69988-4 0  9997,2 52458  53.2186 335.2718 0002913  28.9698 331.1455 15.08842616 33837,6917.871999999999,95.437,541.753,537.722,0.0
52458.0,STARLINK-3898,PAYLOAD,2022-12-14 08:46:06,15.08841672,0.0002912,53.2177,332.2983,28.4623,331.6528,9.3389e-05,1.198e-05,0.0,0 STARLINK-3898,1 52458U 22049H   22348.36535425  .00001198  00000-0  93389-4 0  9998,2 52458  53.2177 332.2983 0002912  28.4623 331.6528 15.08841672 33770,6917.875,95.437,541.755,537.726,0.0
52458.0,STARLINK-3898,PAYLOAD,2022-12-14 16:43:02,15.08842652,0.00029,53.2177,330.8114,28.7993,331.3158,8.8865e-05,1.126e-05,0.0,0 STARLINK-3898,1 52458U 22049H   22348.69655361  .00001126  00000-0  88865-4 0  9990,2 52458  53.2177 330.8114 0002900  28.7993 331.3158 15.08842652 33821,6917.871999999999,95.437,541.743,537.731,0.0
52458.0,STARLINK-3898,PAYLOAD,2022-12-15 07:01:30,15.08840207,0.0002742,53.2177,328.1359,29.9785,330.1364,5.5584e-05,5.96e-06,0.0,0 STARLINK-3898,1 52458U 22049H   22349.29271474  .00000596  00000-0  55584-4 0  9998,2 52458  53.2177 328.1359 0002742  29.9785 330.1364 15.08840207 34076,6917.88,95.438,541.6419999999998,537.8480000000002,0.0
52458.0,STARLINK-3898,PAYLOAD,2022-12-15 10:12:16,15.08838699,0.0002723999999999,53.2175,327.5405,26.445,333.6681,6.149399999999999e-05,6.900000000000003e-06,0.0,0 STARLINK-3898,1 52458U 22049H   22349.42519564  .00000690  00000-0  61494-4 0  9990,2 52458  53.2175 327.5405 0002724  26.4450 333.6681 15.08838699 33936,6917.884,95.438,541.634,537.865,0.0
52458.0,STARLINK-3898,PAYLOAD,2022-12-16 00:30:44,15.0885354,0.0002737,53.2171,324.8640000000001,26.5987,333.5145,0.0002168,3.165e-05,0.0,0 STARLINK-3898,1 52458U 22049H   22350.02134646  .00003165  00000-0  21680-3 0  9994,2 52458  53.2171 324.8640 0002737  26.5987 333.5145 15.08853540 34187,6917.839,95.437,541.597,537.811,0.0
52458.0,STARLINK-3898,PAYLOAD,2022-12-16 10:03:02,15.08880743,0.0002782,53.2174,323.0801,28.4822,331.6322,0.001031,0.00016177,0.0,0 STARLINK-3898,1 52458U 22049H   22350.41877837  .00016177  00000-0  10310-2 0  9997,2 52458  53.2174 323.0801 0002782  28.4822 331.6322 15.08880743 34247,6917.755999999999,95.435,541.545,537.696,0.0
52458.0,STARLINK-3898,PAYLOAD,2022-12-16 14:49:12,15.08830894,0.0002216,53.2175,322.187,9.9492,350.1544,-0.00074772,-0.00012166,0.0,0 STARLINK-3898,1 52458U 22049H   22350.61750443 -.00012166  00000-0 -74772-3 0  9991,2 52458  53.2175 322.1870 0002216   9.9492 350.1544 15.08830894 34270,6917.908,95.438,541.306,538.24,0.0
52458.0,STARLINK-3898,PAYLOAD,2022-12-17 09:53:51,15.088157699999998,0.0002328,53.2172,318.6204,36.245,323.8699,0.0014201,0.0002237,0.0,0 STARLINK-3898,1 52458U 22049H   22351.41240703  .00022370  00000-0  14201-2 0  9999,2 52458  53.2172 318.6204 0002328  36.2450 323.8699 15.08815770 34239,6917.954000000002,95.439,541.43,538.2090000000002,0.0
52458.0,STARLINK-3898,PAYLOAD,2022-12-17 14:40:01,15.08823917,0.0002299,53.2172,317.728,37.0959,323.0192,0.0013234,0.00020828,0.0,0 STARLINK-3898,1 52458U 22049H   22351.61112947  .00020828  00000-0  13234-2 0  9990,2 52458  53.2172 317.7280 0002299  37.0959 323.0192 15.08823917 34268,6917.93,95.439,541.385,538.2040000000002,0.0
52458.0,STARLINK-3898,PAYLOAD,2022-12-18 04:58:29,15.08848493,0.0002328,53.2169,315.052,39.2104,320.9057,0.0013164,0.0002073,0.0,0 STARLINK-3898,1 52458U 22049H   22352.20729067  .00020730  00000-0  13164-2 0  9997,2 52458  53.2169 315.0520 0002328  39.2104 320.9057 15.08848493 34511,6917.854,95.437,541.33,538.109,0.0
52458.0,STARLINK-3898,PAYLOAD,2022-12-18 08:09:16,15.08853561,0.0002328,53.2168,314.4573,39.1899,320.9262,0.0012905999999999,0.00020319,0.0,0 STARLINK-3898,1 52458U 22049H   22352.33976962  .00020319  00000-0  12906-2 0  9995,2 52458  53.2168 314.4573 0002328  39.1899 320.9262 15.08853561 34375,6917.839,95.437,541.314,538.0930000000002,0.0
52458.0,STARLINK-3898,PAYLOAD,2022-12-18 20:52:21,15.0884673,0.000295,53.2163,312.0763,49.7399,310.3851,0.00088348,0.00013803,0.0,0 STARLINK-3898,1 52458U 22049H   22352.86969429  .00013803  00000-0  88348-3 0  9997,2 52458  53.2163 312.0763 0002950  49.7399 310.3851 15.08846730 34454,6917.86,95.437,541.766,537.684,0.0
52458.0,STARLINK-3898,PAYLOAD,2022-12-19 06:24:40,15.08855307,0.0002355,53.2166,310.2937,44.8758,315.2424,0.00084175,0.0001314,0.0,0 STARLINK-3898,1 52458U 22049H   22353.26713033  .00013140  00000-0  84175-3 0  9998,2 52458  53.2166 310.2937 0002355  44.8758 315.2424 15.08855307 34678,6917.834,95.437,541.328,538.069,0.0
52458.0,STARLINK-3898,PAYLOAD,2022-12-19 23:53:54,15.08849522,0.000232,53.2155,307.0217,47.563,312.5558,0.00036404,5.512e-05,0.0,0 STARLINK-3898,1 52458U 22049H   22353.99576909  .00005512  00000-0  36404-3 0  9993,2 52458  53.2155 307.0217 0002320  47.5630 312.5558 15.08849522 34784,6917.851,95.437,541.321,538.111,0.0
52458.0,STARLINK-3898,PAYLOAD,2022-12-20 06:15:26,15.08862224,0.0002228,53.2155,305.8323,50.3929,309.726,0.00055502,8.561e-05,0.0,0 STARLINK-3898,1 52458U 22049H   22354.26072329  .00008561  00000-0  55502-3 0  9998,2 52458  53.2155 305.8323 0002228  50.3929 309.7260 15.08862224 34825,6917.812,95.436,541.219,538.136,0.0
52458.0,STARLINK-3898,PAYLOAD,2022-12-20 14:12:22,15.08841868,0.0001902,53.2158,304.3449,48.4964,311.6191,-2.3736e-05,-6.66e-06,0.0,0 STARLINK-3898,1 52458U 22049H   22354.59192625 -.00000666  00000-0 -23736-4 0  9991,2 52458  53.2158 304.3449 0001902  48.4964 311.6191 15.08841868 34877,6917.875,95.437,541.055,538.424,0.0
52458.0,STARLINK-3898,PAYLOAD,2022-12-21 01:20:05,15.08828892,0.0002144,53.2154,302.2635,56.5516,303.5681,-0.00018299,-3.199e-05,0.0,0 STARLINK-3898,1 52458U 22049H   22355.05561396 -.00003199  00000-0 -18299-3 0  9999,2 52458  53.2154 302.2635 0002144  56.5516 303.5681 15.08828892 34943,6917.9140000000025,95.438,541.263,538.2959999999998,0.0
52458.0,STARLINK-3898,PAYLOAD,2022-12-21 06:06:14,15.08831266,0.0002334,53.2155,301.3703,61.9905,298.1323,-4.81e-05,-1.054e-05,0.0,0 STARLINK-3898,1 52458U 22049H   22355.25433622 -.00001054  00000-0 -48100-4 0  9994,2 52458  53.2155 301.3703 0002334  61.9905 298.1323 15.08831266 34810,6917.906999999997,95.438,541.387,538.1569999999998,0.0
52458.0,STARLINK-3898,PAYLOAD,2022-12-22 05:57:01,15.08843348,0.0002087,53.2159,296.9087,67.2772,292.8441,0.00037408,5.671e-05,0.0,0 STARLINK-3898,1 52458U 22049H   22356.24793720  .00005671  00000-0  37408-3 0  9997,2 52458  53.2159 296.9087 0002087  67.2772 292.8441 15.08843348 34966,6917.87,95.437,541.179,538.2909999999998,0.0
52458.0,STARLINK-3898,PAYLOAD,2022-12-23 05:47:48,15.08851689,0.0002048,53.2164,292.4496,63.8615,296.2587,0.00028378,4.233e-05,0.0,0 STARLINK-3898,1 52458U 22049H   22357.24153094  .00004233  00000-0  28378-3 0  9991,2 52458  53.2164 292.4496 0002048  63.8615 296.2587 15.08851689 35116,6917.845,95.437,541.126,538.293,0.0
52458.0,STARLINK-3898,PAYLOAD,2022-12-23 15:20:07,15.08835936,0.0001882,53.216,290.6668,63.2638,296.8546,-3.5213e-05,-8.48e-06,0.0,0 STARLINK-3898,1 52458U 22049H   22357.63897581 -.00000848  00000-0 -35213-4 0  9997,2 52458  53.2160 290.6668 0001882  63.2638 296.8546 15.08835936 35171,6917.893,95.438,541.06,538.456,0.0
52458.0,STARLINK-3898,PAYLOAD,2022-12-23 23:17:03,15.08841415,0.0001943,53.2155,289.1792,62.45399999999999,297.665,0.00010358,1.361e-05,0.0,0 STARLINK-3898,1 52458U 22049H   22357.97017661  .00001361  00000-0  10358-3 0  9998,2 52458  53.2155 289.1792 0001943  62.4540 297.6650 15.08841415 35384,6917.876,95.437,541.085,538.3969999999998,0.0
52458.0,STARLINK-3898,PAYLOAD,2022-12-24 12:00:07,15.08853941,0.0001906,53.2158,286.8013,59.8606,300.2575,0.00026174,3.882e-05,0.0,0 STARLINK-3898,1 52458U 22049H   22358.50008900  .00003882  00000-0  26174-3 0  9997,2 52458  53.2158 286.8013 0001906  59.8606 300.2575 15.08853941 35462,6917.8380000000025,95.437,541.021,538.384,0.0
52458.0,STARLINK-3898,PAYLOAD,2022-12-24 19:57:03,15.08846357,0.0001908,53.2158,285.3148,61.1027,299.0157,0.0002601,3.855e-05,0.0,0 STARLINK-3898,1 52458U 22049H   22358.83129129  .00003855  00000-0  26010-3 0  9999,2 52458  53.2158 285.3148 0001908  61.1027 299.0157 15.08846357 35510,6917.861,95.437,541.0459999999998,538.406,0.0
52458.0,STARLINK-3898,PAYLOAD,2022-12-25 05:29:21,15.08856296,0.0001833,53.216,283.5309,60.6938,299.4237,0.00039808,6.056e-05,0.0,0 STARLINK-3898,1 52458U 22049H   22359.22872603  .00006056  00000-0  39808-3 0  9990,2 52458  53.2160 283.5309 0001833  60.6938 299.4237 15.08856296 35419,6917.831,95.437,540.964,538.428,0.0
